{"type":"FeatureCollection","features":[{"type":"Feature","geometry":{"type":"Point","coordinates":[-72.4193892,43.4011017]},"properties":{"id":"osm-way-138918900","slug":"ascutney-substation-vt-way-138918900","name":"Ascutney Substation","state":"VT","ownerName":null,"minVoltageKv":46,"maxVoltageKv":115,"voltageBand":"medium","substationType":"distribution","status":"in_service","source":"osm"}},{"type":"Feature","geometry":{"type":"Point","coordinates":[-72.4075139,43.3955863]},"properties":{"id":"osm-way-842303858","slug":"ascutney-substation-vt-way-842303858","name":"Ascutney Substation","state":"VT","ownerName":"Vermont Electric Power Company","minVoltageKv":115,"maxVoltageKv":115,"voltageBand":"medium","substationType":"distribution","status":"in_service","source":"osm"}},{"type":"Feature","geometry":{"type":"Point","coordinates":[-72.5225305,44.1944133]},"properties":{"id":"osm-way-1122539650","slug":"barre-vt-substation-vt-way-1122539650","name":"Barre VT Substation","state":"VT","ownerName":"Vermont Electric Power Company","minVoltageKv":115,"maxVoltageKv":115,"voltageBand":"medium","substationType":"distribution","status":"in_service","source":"osm"}},{"type":"Feature","geometry":{"type":"Point","coordinates":[-72.4419066,43.1325778]},"properties":{"id":"osm-way-288142977","slug":"bellows-falls-substation-vt-way-288142977","name":"Bellows Falls Substation","state":"VT","ownerName":"National Grid","minVoltageKv":46,"maxVoltageKv":115,"voltageBand":"medium","substationType":"distribution","status":"in_service","source":"osm"}},{"type":"Feature","geometry":{"type":"Point","coordinates":[-72.4412595,43.1332065]},"properties":{"id":"osm-way-1039358636","slug":"bellows-falls-substation-vt-way-1039358636","name":"Bellows Falls Substation","state":"VT","ownerName":"Great River Hydro","minVoltageKv":46,"maxVoltageKv":115,"voltageBand":"medium","substationType":"distribution","status":"in_service","source":"osm"}},{"type":"Feature","geometry":{"type":"Point","coordinates":[-73.1714099,42.8944594]},"properties":{"id":"osm-way-517482584","slug":"bennington-substation-vt-way-517482584","name":"Bennington Substation","state":"VT","ownerName":"Vermont Electric Power Company","minVoltageKv":46,"maxVoltageKv":115,"voltageBand":"medium","substationType":"distribution","status":"in_service","source":"osm"}},{"type":"Feature","geometry":{"type":"Point","coordinates":[-72.6033258,44.2498762]},"properties":{"id":"osm-way-135695037","slug":"berlin-substation-vt-way-135695037","name":"Berlin Substation","state":"VT","ownerName":"Vermont Electric Power Company","minVoltageKv":115,"maxVoltageKv":115,"voltageBand":"medium","substationType":"distribution","status":"in_service","source":"osm"}},{"type":"Feature","geometry":{"type":"Point","coordinates":[-73.2331197,43.5761703]},"properties":{"id":"osm-way-140644695","slug":"blissville-substation-vt-way-140644695","name":"Blissville Substation","state":"VT","ownerName":"Vermont Electric Power Company","minVoltageKv":115,"maxVoltageKv":115,"voltageBand":"medium","substationType":"distribution","status":"in_service","source":"osm"}},{"type":"Feature","geometry":{"type":"Point","coordinates":[-72.5489993,42.8870606]},"properties":{"id":"osm-way-814286705","slug":"brudies-road-substation-vt-way-814286705","name":"Brudies Road Substation","state":"VT","ownerName":"Green Mountain Power","minVoltageKv":69,"maxVoltageKv":69,"voltageBand":"sub-trans","substationType":"distribution","status":"in_service","source":"osm"}},{"type":"Feature","geometry":{"type":"Point","coordinates":[-73.2614143,44.3124409]},"properties":{"id":"osm-way-661844990","slug":"charlotte-substation-vt-way-661844990","name":"Charlotte Substation","state":"VT","ownerName":"Vermont Electric Power Company","minVoltageKv":115,"maxVoltageKv":115,"voltageBand":"medium","substationType":"distribution","status":"in_service","source":"osm"}},{"type":"Feature","geometry":{"type":"Point","coordinates":[-72.470548,43.9606112]},"properties":{"id":"osm-way-287809219","slug":"chelsea-vt-substation-vt-way-287809219","name":"Chelsea VT Substation","state":"VT","ownerName":"Vermont Electric Power Company","minVoltageKv":46,"maxVoltageKv":115,"voltageBand":"medium","substationType":"distribution","status":"in_service","source":"osm"}},{"type":"Feature","geometry":{"type":"Point","coordinates":[-72.9456829,43.565174]},"properties":{"id":"osm-way-138917114","slug":"cold-river-substation-vt-way-138917114","name":"Cold River Substation","state":"VT","ownerName":"Vermont Electric Power Company","minVoltageKv":115,"maxVoltageKv":115,"voltageBand":"medium","substationType":"distribution","status":"in_service","source":"osm"}},{"type":"Feature","geometry":{"type":"Point","coordinates":[-72.6600739,43.4291692]},"properties":{"id":"osm-way-725474922","slug":"coolodge-substation-vt-way-725474922","name":"Coolodge Substation","state":"VT","ownerName":"Vermont Electric Power Company","minVoltageKv":115,"maxVoltageKv":345,"voltageBand":"extra-high","substationType":"transmission","status":"in_service","source":"osm"}},{"type":"Feature","geometry":{"type":"Point","coordinates":[-72.8775658,42.9452526]},"properties":{"id":"osm-way-189843545","slug":"dover-substation-vt-way-189843545","name":"Dover Substation","state":"VT","ownerName":"Green Mountain Power","minVoltageKv":69,"maxVoltageKv":69,"voltageBand":"sub-trans","substationType":"distribution","status":"in_service","source":"osm"}},{"type":"Feature","geometry":{"type":"Point","coordinates":[-73.1886558,44.480632]},"properties":{"id":"osm-way-190012533","slug":"east-avenue-substation-vt-way-190012533","name":"East Avenue Substation","state":"VT","ownerName":"Vermont Electric Power Company","minVoltageKv":115,"maxVoltageKv":115,"voltageBand":"medium","substationType":"distribution","status":"in_service","source":"osm"}},{"type":"Feature","geometry":{"type":"Point","coordinates":[-72.9312254,44.6366235]},"properties":{"id":"osm-way-1123469025","slug":"east-fairfax-substation-vt-way-1123469025","name":"East Fairfax Substation","state":"VT","ownerName":"Vermont Electric Power Company","minVoltageKv":115,"maxVoltageKv":115,"voltageBand":"medium","substationType":"distribution","status":"in_service","source":"osm"}},{"type":"Feature","geometry":{"type":"Point","coordinates":[-73.1128341,44.4810485]},"properties":{"id":"osm-way-189843546","slug":"essex-substation-vt-way-189843546","name":"Essex Substation","state":"VT","ownerName":"Vermont Electric Power Company","minVoltageKv":115,"maxVoltageKv":115,"voltageBand":"medium","substationType":"distribution","status":"in_service","source":"osm"}},{"type":"Feature","geometry":{"type":"Point","coordinates":[-72.5462759,42.8881042]},"properties":{"id":"osm-way-1168160263","slug":"fibermark-substation-vt-way-1168160263","name":"Fibermark Substation","state":"VT","ownerName":"Green Mountain Power","minVoltageKv":69,"maxVoltageKv":69,"voltageBand":"sub-trans","substationType":"distribution","status":"in_service","source":"osm"}},{"type":"Feature","geometry":{"type":"Point","coordinates":[-73.0673724,43.7087023]},"properties":{"id":"osm-way-944016587","slug":"florence-substation-vt-way-944016587","name":"Florence Substation","state":"VT","ownerName":"Vermont Electric Power Company","minVoltageKv":115,"maxVoltageKv":115,"voltageBand":"medium","substationType":"distribution","status":"in_service","source":"osm"}},{"type":"Feature","geometry":{"type":"Point","coordinates":[-72.5524957,42.8859885]},"properties":{"id":"osm-way-1175212652","slug":"fulflex-substation-vt-way-1175212652","name":"FulFlex Substation","state":"VT","ownerName":"Green Mountain Power","minVoltageKv":69,"maxVoltageKv":69,"voltageBand":"sub-trans","substationType":"distribution","status":"in_service","source":"osm"}},{"type":"Feature","geometry":{"type":"Point","coordinates":[-73.1552646,44.714198]},"properties":{"id":"osm-way-190012534","slug":"georgia-switching-station-vt-way-190012534","name":"Georgia Switching Station","state":"VT","ownerName":"Vermont Electric Power Company","minVoltageKv":115,"maxVoltageKv":115,"voltageBand":"medium","substationType":"distribution","status":"in_service","source":"osm"}},{"type":"Feature","geometry":{"type":"Point","coordinates":[-72.498941,44.1187727]},"properties":{"id":"osm-way-138895633","slug":"granite-substation-vt-way-138895633","name":"Granite Substation","state":"VT","ownerName":"Vermont Electric Power Company","minVoltageKv":115,"maxVoltageKv":230,"voltageBand":"high","substationType":"transmission","status":"in_service","source":"osm"}},{"type":"Feature","geometry":{"type":"Point","coordinates":[-72.9302611,42.7580693]},"properties":{"id":"osm-way-239073261","slug":"harriman-115kv-substation-vt-way-239073261","name":"Harriman 115kV Substation","state":"VT","ownerName":"National Grid","minVoltageKv":115,"maxVoltageKv":115,"voltageBand":"medium","substationType":"distribution","status":"in_service","source":"osm"}},{"type":"Feature","geometry":{"type":"Point","coordinates":[-72.9287248,42.7573508]},"properties":{"id":"osm-way-139241758","slug":"harriman-substation-vt-way-139241758","name":"Harriman Substation","state":"VT","ownerName":"National Grid","minVoltageKv":69,"maxVoltageKv":69,"voltageBand":"sub-trans","substationType":"distribution","status":"in_service","source":"osm"}},{"type":"Feature","geometry":{"type":"Point","coordinates":[-72.311764,43.6832649]},"properties":{"id":"osm-way-896905902","slug":"hartford-vt-substation-vt-way-896905902","name":"Hartford VT Substation","state":"VT","ownerName":"Vermont Electric Power Company","minVoltageKv":115,"maxVoltageKv":115,"voltageBand":"medium","substationType":"distribution","status":"in_service","source":"osm"}},{"type":"Feature","geometry":{"type":"Point","coordinates":[-73.0543011,44.9382693]},"properties":{"id":"osm-way-170528324","slug":"highgate-200mw-hvdc-converter-station-vt-way-170528324","name":"Highgate 200MW HVDC Converter Station","state":"VT","ownerName":"Vermont Electric Power Company","minVoltageKv":115,"maxVoltageKv":115,"voltageBand":"medium","substationType":"transmission","status":"in_service","source":"osm"}},{"type":"Feature","geometry":{"type":"Point","coordinates":[-73.0515156,44.94034]},"properties":{"id":"osm-way-170528200","slug":"highgate-substation-vt-way-170528200","name":"Highgate Substation","state":"VT","ownerName":"Vermont Electric Power Company","minVoltageKv":115,"maxVoltageKv":115,"voltageBand":"medium","substationType":"distribution","status":"in_service","source":"osm"}},{"type":"Feature","geometry":{"type":"Point","coordinates":[-73.0955743,44.4793028]},"properties":{"id":"osm-way-190020516","slug":"ibm-substation-vt-way-190020516","name":"IBM Substation","state":"VT","ownerName":"Vermont Electric Power Company","minVoltageKv":115,"maxVoltageKv":115,"voltageBand":"medium","substationType":"distribution","status":"in_service","source":"osm"}},{"type":"Feature","geometry":{"type":"Point","coordinates":[-73.1070959,44.4838652]},"properties":{"id":"osm-way-324044994","slug":"ibm-substation-vt-way-324044994","name":"IBM Substation","state":"VT","ownerName":"Vermont Electric Power Company","minVoltageKv":115,"maxVoltageKv":115,"voltageBand":"medium","substationType":"distribution","status":"in_service","source":"osm"}},{"type":"Feature","geometry":{"type":"Point","coordinates":[-73.0887372,44.4745299]},"properties":{"id":"osm-way-639061008","slug":"ibm-substation-vt-way-639061008","name":"IBM Substation","state":"VT","ownerName":"Vermont Electric Power Company","minVoltageKv":115,"maxVoltageKv":115,"voltageBand":"medium","substationType":"distribution","status":"in_service","source":"osm"}},{"type":"Feature","geometry":{"type":"Point","coordinates":[-72.2842054,44.8446707]},"properties":{"id":"osm-way-354331184","slug":"irasburg-substation-vt-way-354331184","name":"Irasburg Substation","state":"VT","ownerName":"Vermont Electric Power Company","minVoltageKv":115,"maxVoltageKv":115,"voltageBand":"medium","substationType":"distribution","status":"in_service","source":"osm"}},{"type":"Feature","geometry":{"type":"Point","coordinates":[-72.4823036,44.9784179]},"properties":{"id":"osm-way-514833914","slug":"jay-tap-substation-vt-way-514833914","name":"Jay Tap Substation","state":"VT","ownerName":"Vermont Electric Power Company","minVoltageKv":115,"maxVoltageKv":115,"voltageBand":"medium","substationType":"distribution","status":"in_service","source":"osm"}},{"type":"Feature","geometry":{"type":"Point","coordinates":[-73.1696074,44.4879648]},"properties":{"id":"osm-way-190012538","slug":"lime-kiln-substation-vt-way-190012538","name":"Lime Kiln Substation","state":"VT","ownerName":"Vermont Electric Power Company","minVoltageKv":115,"maxVoltageKv":115,"voltageBand":"medium","substationType":"distribution","status":"in_service","source":"osm"}},{"type":"Feature","geometry":{"type":"Point","coordinates":[-71.9936757,44.5346961]},"properties":{"id":"osm-way-562309350","slug":"lyndonville-substation-vt-way-562309350","name":"Lyndonville Substation","state":"VT","ownerName":"Vermont Electric Power Company","minVoltageKv":115,"maxVoltageKv":115,"voltageBand":"medium","substationType":"distribution","status":"in_service","source":"osm"}},{"type":"Feature","geometry":{"type":"Point","coordinates":[-73.1336772,44.014275]},"properties":{"id":"osm-relation-6783772","slug":"middlebury-substation-vt-relation-6783772","name":"Middlebury Substation","state":"VT","ownerName":"Vermont Electric Power Company","minVoltageKv":46,"maxVoltageKv":115,"voltageBand":"medium","substationType":"distribution","status":"in_service","source":"osm"}},{"type":"Feature","geometry":{"type":"Point","coordinates":[-72.6794477,44.2891644]},"properties":{"id":"osm-way-325316446","slug":"middlesex-substation-vt-way-325316446","name":"Middlesex Substation","state":"VT","ownerName":"Vermont Electric Power Company","minVoltageKv":115,"maxVoltageKv":115,"voltageBand":"medium","substationType":"distribution","status":"in_service","source":"osm"}},{"type":"Feature","geometry":{"type":"Point","coordinates":[-73.1654661,44.1191362]},"properties":{"id":"osm-way-423874222","slug":"new-haven-substation-vt-way-423874222","name":"New Haven Substation","state":"VT","ownerName":"Vermont Electric Power Company","minVoltageKv":46,"maxVoltageKv":345,"voltageBand":"extra-high","substationType":"transmission","status":"in_service","source":"osm"}},{"type":"Feature","geometry":{"type":"Point","coordinates":[-72.6523328,42.9680829]},"properties":{"id":"osm-way-138927367","slug":"newfane-substation-vt-way-138927367","name":"Newfane Substation","state":"VT","ownerName":"Vermont Electric Power Company","minVoltageKv":46,"maxVoltageKv":345,"voltageBand":"extra-high","substationType":"transmission","status":"in_service","source":"osm"}},{"type":"Feature","geometry":{"type":"Point","coordinates":[-72.1794277,44.9390343]},"properties":{"id":"osm-way-753511648","slug":"newport-substation-vt-way-753511648","name":"Newport Substation","state":"VT","ownerName":"Vermont Electric Power Company;Vermont Electric Cooperative","minVoltageKv":115,"maxVoltageKv":115,"voltageBand":"medium","substationType":"distribution","status":"in_service","source":"osm"}},{"type":"Feature","geometry":{"type":"Point","coordinates":[-72.5557989,42.8654442]},"properties":{"id":"osm-way-138927366","slug":"north-battleboro-substation-vt-way-138927366","name":"North Battleboro Substation","state":"VT","ownerName":"Green Mountain Power","minVoltageKv":46,"maxVoltageKv":69,"voltageBand":"sub-trans","substationType":"distribution","status":"in_service","source":"osm"}},{"type":"Feature","geometry":{"type":"Point","coordinates":[-73.2562097,44.253303]},"properties":{"id":"osm-way-827354974","slug":"north-ferrisburg-substation-vt-way-827354974","name":"North Ferrisburg Substation","state":"VT","ownerName":"Vermont Electric Power Company","minVoltageKv":115,"maxVoltageKv":115,"voltageBand":"medium","substationType":"distribution","status":"in_service","source":"osm"}},{"type":"Feature","geometry":{"type":"Point","coordinates":[-72.9727211,43.6341642]},"properties":{"id":"osm-way-139591744","slug":"north-rutland-substation-vt-way-139591744","name":"North Rutland Substation","state":"VT","ownerName":"Vermont Electric Power Company","minVoltageKv":46,"maxVoltageKv":115,"voltageBand":"medium","substationType":"distribution","status":"in_service","source":"osm"}},{"type":"Feature","geometry":{"type":"Point","coordinates":[-72.5454883,42.8938829]},"properties":{"id":"osm-way-814286700","slug":"old-ferry-road-substation-vt-way-814286700","name":"Old Ferry Road Substation","state":"VT","ownerName":"National Grid","minVoltageKv":69,"maxVoltageKv":69,"voltageBand":"sub-trans","substationType":"distribution","status":"in_service","source":"osm"}},{"type":"Feature","geometry":{"type":"Point","coordinates":[-73.0342944,43.6625226]},"properties":{"id":"osm-way-1018532786","slug":"proctor-substation-vt-way-1018532786","name":"Proctor Substation","state":"VT","ownerName":"Green Mountain Power","minVoltageKv":null,"maxVoltageKv":null,"voltageBand":"unknown","substationType":"unknown","status":"in_service","source":"osm"}},{"type":"Feature","geometry":{"type":"Point","coordinates":[-72.9865648,42.886322]},"properties":{"id":"osm-way-995309460","slug":"putnam-road-substation-vt-way-995309460","name":"Putnam Road Substation","state":"VT","ownerName":"National Grid","minVoltageKv":69,"maxVoltageKv":69,"voltageBand":"sub-trans","substationType":"distribution","status":"in_service","source":"osm"}},{"type":"Feature","geometry":{"type":"Point","coordinates":[-72.5121976,42.9713036]},"properties":{"id":"osm-way-832392590","slug":"putney-substation-vt-way-832392590","name":"Putney Substation","state":"VT","ownerName":"Green Mountain Power","minVoltageKv":69,"maxVoltageKv":69,"voltageBand":"sub-trans","substationType":"distribution","status":"in_service","source":"osm"}},{"type":"Feature","geometry":{"type":"Point","coordinates":[-73.2186105,44.4457089]},"properties":{"id":"osm-way-330736222","slug":"queen-city-substation-vt-way-330736222","name":"Queen City Substation","state":"VT","ownerName":"Vermont Electric Power Company","minVoltageKv":115,"maxVoltageKv":115,"voltageBand":"medium","substationType":"distribution","status":"in_service","source":"osm"}},{"type":"Feature","geometry":{"type":"Point","coordinates":[-73.2059129,44.6092496]},"properties":{"id":"osm-way-189843547","slug":"sandbar-substation-vt-way-189843547","name":"Sandbar Substation","state":"VT","ownerName":"Vermont Electric Power Company","minVoltageKv":115,"maxVoltageKv":115,"voltageBand":"medium","substationType":"distribution","status":"in_service","source":"osm"}},{"type":"Feature","geometry":{"type":"Point","coordinates":[-72.9251457,42.8708449]},"properties":{"id":"osm-way-139241763","slug":"searsburg-substation-vt-way-139241763","name":"Searsburg Substation","state":"VT","ownerName":"National Grid","minVoltageKv":69,"maxVoltageKv":69,"voltageBand":"sub-trans","substationType":"distribution","status":"in_service","source":"osm"}},{"type":"Feature","geometry":{"type":"Point","coordinates":[-72.1229223,44.6636503]},"properties":{"id":"osm-way-562916282","slug":"sheffield-substation-vt-way-562916282","name":"Sheffield Substation","state":"VT","ownerName":"Vermont Electric Power Company","minVoltageKv":115,"maxVoltageKv":115,"voltageBand":"medium","substationType":"distribution","status":"in_service","source":"osm"}},{"type":"Feature","geometry":{"type":"Point","coordinates":[-73.238621,44.3835739]},"properties":{"id":"osm-way-661847933","slug":"shelburne-substation-vt-way-661847933","name":"Shelburne Substation","state":"VT","ownerName":"Vermont Electric Power Company","minVoltageKv":115,"maxVoltageKv":115,"voltageBand":"medium","substationType":"distribution","status":"in_service","source":"osm"}},{"type":"Feature","geometry":{"type":"Point","coordinates":[-72.9734337,42.8598068]},"properties":{"id":"osm-way-956983223","slug":"sleepy-hollow-substation-vt-way-956983223","name":"Sleepy Hollow Substation","state":"VT","ownerName":"Green Mountain Power","minVoltageKv":69,"maxVoltageKv":69,"voltageBand":"sub-trans","substationType":"distribution","status":"in_service","source":"osm"}},{"type":"Feature","geometry":{"type":"Point","coordinates":[-72.5548411,42.8375078]},"properties":{"id":"osm-way-1175212653","slug":"south-brattleboro-tap-vt-way-1175212653","name":"South Brattleboro Tap","state":"VT","ownerName":"Green Mountain Power","minVoltageKv":69,"maxVoltageKv":69,"voltageBand":"sub-trans","substationType":"distribution","status":"in_service","source":"osm"}},{"type":"Feature","geometry":{"type":"Point","coordinates":[-73.3386297,44.6669894]},"properties":{"id":"osm-way-191574147","slug":"south-hero-substation-vt-way-191574147","name":"South Hero Substation","state":"VT","ownerName":"Vermont Electric Power Company","minVoltageKv":115,"maxVoltageKv":115,"voltageBand":"medium","substationType":"distribution","status":"in_service","source":"osm"}},{"type":"Feature","geometry":{"type":"Point","coordinates":[-73.0988643,44.8044254]},"properties":{"id":"osm-way-145873870","slug":"st-albans-substation-vt-way-145873870","name":"St. Albans Substation","state":"VT","ownerName":"Vermont Electric Power Company","minVoltageKv":115,"maxVoltageKv":115,"voltageBand":"medium","substationType":"distribution","status":"in_service","source":"osm"}},{"type":"Feature","geometry":{"type":"Point","coordinates":[-73.1191441,44.8069845]},"properties":{"id":"osm-way-1002176743","slug":"st-albans-tap-substation-vt-way-1002176743","name":"St. Albans Tap Substation","state":"VT","ownerName":"Vermont Electric Power Company","minVoltageKv":115,"maxVoltageKv":115,"voltageBand":"medium","substationType":"distribution","status":"in_service","source":"osm"}},{"type":"Feature","geometry":{"type":"Point","coordinates":[-71.9838623,44.4179412]},"properties":{"id":"osm-way-495564984","slug":"st-johnsbury-substation-vt-way-495564984","name":"St. Johnsbury Substation","state":"VT","ownerName":"Vermont Electric Power Company","minVoltageKv":115,"maxVoltageKv":115,"voltageBand":"medium","substationType":"distribution","status":"in_service","source":"osm"}},{"type":"Feature","geometry":{"type":"Point","coordinates":[-72.6981966,44.4592018]},"properties":{"id":"osm-way-564111444","slug":"stowe-substation-vt-way-564111444","name":"Stowe Substation","state":"VT","ownerName":"Vermont Electric Power Company","minVoltageKv":115,"maxVoltageKv":115,"voltageBand":"medium","substationType":"distribution","status":"in_service","source":"osm"}},{"type":"Feature","geometry":{"type":"Point","coordinates":[-72.8938898,43.6543348]},"properties":{"id":"osm-way-1020876484","slug":"substation-1020876484-vt-way-1020876484","name":"Substation 1020876484","state":"VT","ownerName":null,"minVoltageKv":null,"maxVoltageKv":null,"voltageBand":"unknown","substationType":"unknown","status":"in_service","source":"osm"}},{"type":"Feature","geometry":{"type":"Point","coordinates":[-72.5150749,43.4550828]},"properties":{"id":"osm-way-1034528067","slug":"substation-1034528067-vt-way-1034528067","name":"Substation 1034528067","state":"VT","ownerName":null,"minVoltageKv":null,"maxVoltageKv":null,"voltageBand":"unknown","substationType":"unknown","status":"in_service","source":"osm"}},{"type":"Feature","geometry":{"type":"Point","coordinates":[-73.003844,44.4244553]},"properties":{"id":"osm-way-1038341511","slug":"substation-1038341511-vt-way-1038341511","name":"Substation 1038341511","state":"VT","ownerName":null,"minVoltageKv":null,"maxVoltageKv":null,"voltageBand":"unknown","substationType":"unknown","status":"in_service","source":"osm"}},{"type":"Feature","geometry":{"type":"Point","coordinates":[-72.4414905,43.1346787]},"properties":{"id":"osm-way-1039358630","slug":"substation-1039358630-vt-way-1039358630","name":"Substation 1039358630","state":"VT","ownerName":null,"minVoltageKv":null,"maxVoltageKv":null,"voltageBand":"unknown","substationType":"unknown","status":"in_service","source":"osm"}},{"type":"Feature","geometry":{"type":"Point","coordinates":[-73.2465247,43.4062987]},"properties":{"id":"osm-way-1041419953","slug":"substation-1041419953-vt-way-1041419953","name":"Substation 1041419953","state":"VT","ownerName":null,"minVoltageKv":null,"maxVoltageKv":null,"voltageBand":"unknown","substationType":"unknown","status":"in_service","source":"osm"}},{"type":"Feature","geometry":{"type":"Point","coordinates":[-73.3509585,44.6967207]},"properties":{"id":"osm-way-1046944585","slug":"substation-1046944585-vt-way-1046944585","name":"Substation 1046944585","state":"VT","ownerName":"Vermont Electric Power Company","minVoltageKv":115,"maxVoltageKv":115,"voltageBand":"medium","substationType":"unknown","status":"in_service","source":"osm"}},{"type":"Feature","geometry":{"type":"Point","coordinates":[-73.2736477,44.6372439]},"properties":{"id":"osm-way-1049377932","slug":"substation-1049377932-vt-way-1049377932","name":"Substation 1049377932","state":"VT","ownerName":"Vermont Electric Power Company","minVoltageKv":115,"maxVoltageKv":115,"voltageBand":"medium","substationType":"unknown","status":"in_service","source":"osm"}},{"type":"Feature","geometry":{"type":"Point","coordinates":[-71.5337956,44.9969179]},"properties":{"id":"osm-way-1068552105","slug":"substation-1068552105-vt-way-1068552105","name":"Substation 1068552105","state":"VT","ownerName":null,"minVoltageKv":null,"maxVoltageKv":null,"voltageBand":"unknown","substationType":"unknown","status":"in_service","source":"osm"}},{"type":"Feature","geometry":{"type":"Point","coordinates":[-73.0521715,43.59968]},"properties":{"id":"osm-way-1074286774","slug":"substation-1074286774-vt-way-1074286774","name":"Substation 1074286774","state":"VT","ownerName":null,"minVoltageKv":null,"maxVoltageKv":null,"voltageBand":"unknown","substationType":"unknown","status":"in_service","source":"osm"}},{"type":"Feature","geometry":{"type":"Point","coordinates":[-73.202248,42.8559216]},"properties":{"id":"osm-way-1088818898","slug":"substation-1088818898-vt-way-1088818898","name":"Substation 1088818898","state":"VT","ownerName":null,"minVoltageKv":null,"maxVoltageKv":null,"voltageBand":"unknown","substationType":"unknown","status":"in_service","source":"osm"}},{"type":"Feature","geometry":{"type":"Point","coordinates":[-73.0316243,44.6338755]},"properties":{"id":"osm-node-10912560120","slug":"substation-10912560120-vt-node-10912560120","name":"Substation 10912560120","state":"VT","ownerName":null,"minVoltageKv":null,"maxVoltageKv":null,"voltageBand":"unknown","substationType":"unknown","status":"in_service","source":"osm"}},{"type":"Feature","geometry":{"type":"Point","coordinates":[-71.9311288,44.3432544]},"properties":{"id":"osm-way-1107795418","slug":"substation-1107795418-vt-way-1107795418","name":"Substation 1107795418","state":"VT","ownerName":null,"minVoltageKv":null,"maxVoltageKv":null,"voltageBand":"unknown","substationType":"unknown","status":"in_service","source":"osm"}},{"type":"Feature","geometry":{"type":"Point","coordinates":[-72.358273,43.6039138]},"properties":{"id":"osm-way-1108589710","slug":"substation-1108589710-vt-way-1108589710","name":"Substation 1108589710","state":"VT","ownerName":null,"minVoltageKv":null,"maxVoltageKv":null,"voltageBand":"unknown","substationType":"unknown","status":"in_service","source":"osm"}},{"type":"Feature","geometry":{"type":"Point","coordinates":[-72.350846,43.5933011]},"properties":{"id":"osm-way-1109056811","slug":"substation-1109056811-vt-way-1109056811","name":"Substation 1109056811","state":"VT","ownerName":null,"minVoltageKv":null,"maxVoltageKv":null,"voltageBand":"unknown","substationType":"unknown","status":"in_service","source":"osm"}},{"type":"Feature","geometry":{"type":"Point","coordinates":[-71.7912952,45.0090567]},"properties":{"id":"osm-way-1145216139","slug":"substation-1145216139-vt-way-1145216139","name":"Substation 1145216139","state":"VT","ownerName":null,"minVoltageKv":null,"maxVoltageKv":null,"voltageBand":"unknown","substationType":"unknown","status":"in_service","source":"osm"}},{"type":"Feature","geometry":{"type":"Point","coordinates":[-73.2248341,42.9043869]},"properties":{"id":"osm-way-1225580245","slug":"substation-1225580245-vt-way-1225580245","name":"Substation 1225580245","state":"VT","ownerName":null,"minVoltageKv":null,"maxVoltageKv":null,"voltageBand":"unknown","substationType":"unknown","status":"in_service","source":"osm"}},{"type":"Feature","geometry":{"type":"Point","coordinates":[-72.0264233,44.3751467]},"properties":{"id":"osm-way-1249159949","slug":"substation-1249159949-vt-way-1249159949","name":"Substation 1249159949","state":"VT","ownerName":null,"minVoltageKv":null,"maxVoltageKv":null,"voltageBand":"unknown","substationType":"unknown","status":"in_service","source":"osm"}},{"type":"Feature","geometry":{"type":"Point","coordinates":[-73.0743241,44.3616187]},"properties":{"id":"osm-way-1280225985","slug":"substation-1280225985-vt-way-1280225985","name":"Substation 1280225985","state":"VT","ownerName":null,"minVoltageKv":null,"maxVoltageKv":null,"voltageBand":"unknown","substationType":"unknown","status":"in_service","source":"osm"}},{"type":"Feature","geometry":{"type":"Point","coordinates":[-72.0553777,44.8871562]},"properties":{"id":"osm-way-1312925847","slug":"substation-1312925847-vt-way-1312925847","name":"Substation 1312925847","state":"VT","ownerName":"Barton Electric Department","minVoltageKv":null,"maxVoltageKv":null,"voltageBand":"unknown","substationType":"unknown","status":"in_service","source":"osm"}},{"type":"Feature","geometry":{"type":"Point","coordinates":[-72.2232016,44.9109256]},"properties":{"id":"osm-way-1312925848","slug":"substation-1312925848-vt-way-1312925848","name":"Substation 1312925848","state":"VT","ownerName":null,"minVoltageKv":null,"maxVoltageKv":null,"voltageBand":"unknown","substationType":"unknown","status":"in_service","source":"osm"}},{"type":"Feature","geometry":{"type":"Point","coordinates":[-73.1317042,44.9295344]},"properties":{"id":"osm-way-1313117717","slug":"substation-1313117717-vt-way-1313117717","name":"Substation 1313117717","state":"VT","ownerName":null,"minVoltageKv":null,"maxVoltageKv":null,"voltageBand":"unknown","substationType":"unknown","status":"in_service","source":"osm"}},{"type":"Feature","geometry":{"type":"Point","coordinates":[-73.1130504,43.2695776]},"properties":{"id":"osm-way-1388851081","slug":"substation-1388851081-vt-way-1388851081","name":"Substation 1388851081","state":"VT","ownerName":null,"minVoltageKv":null,"maxVoltageKv":null,"voltageBand":"unknown","substationType":"unknown","status":"in_service","source":"osm"}},{"type":"Feature","geometry":{"type":"Point","coordinates":[-73.1401049,44.4517686]},"properties":{"id":"osm-way-1389198069","slug":"substation-1389198069-vt-way-1389198069","name":"Substation 1389198069","state":"VT","ownerName":null,"minVoltageKv":null,"maxVoltageKv":null,"voltageBand":"unknown","substationType":"unknown","status":"in_service","source":"osm"}},{"type":"Feature","geometry":{"type":"Point","coordinates":[-73.2425879,43.5255897]},"properties":{"id":"osm-way-1419687970","slug":"substation-1419687970-vt-way-1419687970","name":"Substation 1419687970","state":"VT","ownerName":null,"minVoltageKv":null,"maxVoltageKv":null,"voltageBand":"unknown","substationType":"unknown","status":"in_service","source":"osm"}},{"type":"Feature","geometry":{"type":"Point","coordinates":[-73.2428414,43.5255937]},"properties":{"id":"osm-way-1419687971","slug":"substation-1419687971-vt-way-1419687971","name":"Substation 1419687971","state":"VT","ownerName":null,"minVoltageKv":null,"maxVoltageKv":null,"voltageBand":"unknown","substationType":"unknown","status":"in_service","source":"osm"}},{"type":"Feature","geometry":{"type":"Point","coordinates":[-72.6608438,43.427118]},"properties":{"id":"osm-way-1419689608","slug":"substation-1419689608-vt-way-1419689608","name":"Substation 1419689608","state":"VT","ownerName":null,"minVoltageKv":115,"maxVoltageKv":115,"voltageBand":"medium","substationType":"unknown","status":"in_service","source":"osm"}},{"type":"Feature","geometry":{"type":"Point","coordinates":[-72.6589422,43.4287221]},"properties":{"id":"osm-way-1419689609","slug":"substation-1419689609-vt-way-1419689609","name":"Substation 1419689609","state":"VT","ownerName":null,"minVoltageKv":115,"maxVoltageKv":115,"voltageBand":"medium","substationType":"unknown","status":"in_service","source":"osm"}},{"type":"Feature","geometry":{"type":"Point","coordinates":[-72.4062479,43.6411064]},"properties":{"id":"osm-way-1420641104","slug":"substation-1420641104-vt-way-1420641104","name":"Substation 1420641104","state":"VT","ownerName":null,"minVoltageKv":null,"maxVoltageKv":null,"voltageBand":"unknown","substationType":"unknown","status":"in_service","source":"osm"}},{"type":"Feature","geometry":{"type":"Point","coordinates":[-72.6023902,44.5611714]},"properties":{"id":"osm-way-1420727447","slug":"substation-1420727447-vt-way-1420727447","name":"Substation 1420727447","state":"VT","ownerName":null,"minVoltageKv":null,"maxVoltageKv":null,"voltageBand":"unknown","substationType":"unknown","status":"in_service","source":"osm"}},{"type":"Feature","geometry":{"type":"Point","coordinates":[-73.233998,43.604002]},"properties":{"id":"osm-way-143929950","slug":"substation-143929950-vt-way-143929950","name":"Substation 143929950","state":"VT","ownerName":"Central Vermont Public Service","minVoltageKv":null,"maxVoltageKv":null,"voltageBand":"unknown","substationType":"unknown","status":"in_service","source":"osm"}},{"type":"Feature","geometry":{"type":"Point","coordinates":[-73.0617318,44.7826248]},"properties":{"id":"osm-way-1450106311","slug":"substation-1450106311-vt-way-1450106311","name":"Substation 1450106311","state":"VT","ownerName":"Green Lantern Solar","minVoltageKv":null,"maxVoltageKv":null,"voltageBand":"unknown","substationType":"unknown","status":"in_service","source":"osm"}},{"type":"Feature","geometry":{"type":"Point","coordinates":[-72.6190914,42.9506107]},"properties":{"id":"osm-way-1495710246","slug":"substation-1495710246-vt-way-1495710246","name":"Substation 1495710246","state":"VT","ownerName":null,"minVoltageKv":null,"maxVoltageKv":null,"voltageBand":"unknown","substationType":"unknown","status":"in_service","source":"osm"}},{"type":"Feature","geometry":{"type":"Point","coordinates":[-72.7583665,43.0842339]},"properties":{"id":"osm-way-1495710247","slug":"substation-1495710247-vt-way-1495710247","name":"Substation 1495710247","state":"VT","ownerName":null,"minVoltageKv":null,"maxVoltageKv":null,"voltageBand":"unknown","substationType":"unknown","status":"in_service","source":"osm"}},{"type":"Feature","geometry":{"type":"Point","coordinates":[-73.2209151,42.7949559]},"properties":{"id":"osm-way-1495710248","slug":"substation-1495710248-vt-way-1495710248","name":"Substation 1495710248","state":"VT","ownerName":null,"minVoltageKv":null,"maxVoltageKv":null,"voltageBand":"unknown","substationType":"unknown","status":"in_service","source":"osm"}},{"type":"Feature","geometry":{"type":"Point","coordinates":[-73.1540098,43.070191]},"properties":{"id":"osm-way-1495710249","slug":"substation-1495710249-vt-way-1495710249","name":"Substation 1495710249","state":"VT","ownerName":null,"minVoltageKv":null,"maxVoltageKv":null,"voltageBand":"unknown","substationType":"unknown","status":"in_service","source":"osm"}},{"type":"Feature","geometry":{"type":"Point","coordinates":[-72.6640647,43.9128065]},"properties":{"id":"osm-way-1495710251","slug":"substation-1495710251-vt-way-1495710251","name":"Substation 1495710251","state":"VT","ownerName":null,"minVoltageKv":null,"maxVoltageKv":null,"voltageBand":"unknown","substationType":"unknown","status":"in_service","source":"osm"}},{"type":"Feature","geometry":{"type":"Point","coordinates":[-73.1959284,44.0699688]},"properties":{"id":"osm-way-1495710252","slug":"substation-1495710252-vt-way-1495710252","name":"Substation 1495710252","state":"VT","ownerName":null,"minVoltageKv":null,"maxVoltageKv":null,"voltageBand":"unknown","substationType":"unknown","status":"in_service","source":"osm"}},{"type":"Feature","geometry":{"type":"Point","coordinates":[-73.052587,43.7752598]},"properties":{"id":"osm-way-1495710253","slug":"substation-1495710253-vt-way-1495710253","name":"Substation 1495710253","state":"VT","ownerName":null,"minVoltageKv":null,"maxVoltageKv":null,"voltageBand":"unknown","substationType":"unknown","status":"in_service","source":"osm"}},{"type":"Feature","geometry":{"type":"Point","coordinates":[-73.0638933,43.7090099]},"properties":{"id":"osm-way-1495710254","slug":"substation-1495710254-vt-way-1495710254","name":"Substation 1495710254","state":"VT","ownerName":null,"minVoltageKv":null,"maxVoltageKv":null,"voltageBand":"unknown","substationType":"unknown","status":"in_service","source":"osm"}},{"type":"Feature","geometry":{"type":"Point","coordinates":[-72.9759946,43.6363661]},"properties":{"id":"osm-way-1495710255","slug":"substation-1495710255-vt-way-1495710255","name":"Substation 1495710255","state":"VT","ownerName":null,"minVoltageKv":null,"maxVoltageKv":null,"voltageBand":"unknown","substationType":"unknown","status":"in_service","source":"osm"}},{"type":"Feature","geometry":{"type":"Point","coordinates":[-72.9596231,43.5758644]},"properties":{"id":"osm-way-1495710256","slug":"substation-1495710256-vt-way-1495710256","name":"Substation 1495710256","state":"VT","ownerName":null,"minVoltageKv":null,"maxVoltageKv":null,"voltageBand":"unknown","substationType":"unknown","status":"in_service","source":"osm"}},{"type":"Feature","geometry":{"type":"Point","coordinates":[-72.9769675,43.4773601]},"properties":{"id":"osm-way-1495710257","slug":"substation-1495710257-vt-way-1495710257","name":"Substation 1495710257","state":"VT","ownerName":null,"minVoltageKv":null,"maxVoltageKv":null,"voltageBand":"unknown","substationType":"unknown","status":"in_service","source":"osm"}},{"type":"Feature","geometry":{"type":"Point","coordinates":[-72.6944833,43.3998341]},"properties":{"id":"osm-way-1495710258","slug":"substation-1495710258-vt-way-1495710258","name":"Substation 1495710258","state":"VT","ownerName":null,"minVoltageKv":null,"maxVoltageKv":null,"voltageBand":"unknown","substationType":"unknown","status":"in_service","source":"osm"}},{"type":"Feature","geometry":{"type":"Point","coordinates":[-72.422395,43.6542307]},"properties":{"id":"osm-way-1495710259","slug":"substation-1495710259-vt-way-1495710259","name":"Substation 1495710259","state":"VT","ownerName":null,"minVoltageKv":null,"maxVoltageKv":null,"voltageBand":"unknown","substationType":"unknown","status":"in_service","source":"osm"}},{"type":"Feature","geometry":{"type":"Point","coordinates":[-72.1771251,43.8785873]},"properties":{"id":"osm-way-1495710260","slug":"substation-1495710260-vt-way-1495710260","name":"Substation 1495710260","state":"VT","ownerName":null,"minVoltageKv":null,"maxVoltageKv":null,"voltageBand":"unknown","substationType":"unknown","status":"in_service","source":"osm"}},{"type":"Feature","geometry":{"type":"Point","coordinates":[-72.5761895,44.3085459]},"properties":{"id":"osm-way-1495710261","slug":"substation-1495710261-vt-way-1495710261","name":"Substation 1495710261","state":"VT","ownerName":null,"minVoltageKv":null,"maxVoltageKv":null,"voltageBand":"unknown","substationType":"unknown","status":"in_service","source":"osm"}},{"type":"Feature","geometry":{"type":"Point","coordinates":[-72.8167686,44.3585173]},"properties":{"id":"osm-way-1495710262","slug":"substation-1495710262-vt-way-1495710262","name":"Substation 1495710262","state":"VT","ownerName":null,"minVoltageKv":null,"maxVoltageKv":null,"voltageBand":"unknown","substationType":"unknown","status":"in_service","source":"osm"}},{"type":"Feature","geometry":{"type":"Point","coordinates":[-73.2444709,44.5351545]},"properties":{"id":"osm-way-1495710263","slug":"substation-1495710263-vt-way-1495710263","name":"Substation 1495710263","state":"VT","ownerName":null,"minVoltageKv":null,"maxVoltageKv":null,"voltageBand":"unknown","substationType":"unknown","status":"in_service","source":"osm"}},{"type":"Feature","geometry":{"type":"Point","coordinates":[-73.1825381,44.553801]},"properties":{"id":"osm-way-1495710264","slug":"substation-1495710264-vt-way-1495710264","name":"Substation 1495710264","state":"VT","ownerName":null,"minVoltageKv":null,"maxVoltageKv":null,"voltageBand":"unknown","substationType":"unknown","status":"in_service","source":"osm"}},{"type":"Feature","geometry":{"type":"Point","coordinates":[-73.2472554,42.9124173]},"properties":{"id":"osm-way-1495783691","slug":"substation-1495783691-vt-way-1495783691","name":"Substation 1495783691","state":"VT","ownerName":null,"minVoltageKv":null,"maxVoltageKv":null,"voltageBand":"unknown","substationType":"unknown","status":"in_service","source":"osm"}},{"type":"Feature","geometry":{"type":"Point","coordinates":[-73.2016176,42.8858016]},"properties":{"id":"osm-way-1495784183","slug":"substation-1495784183-vt-way-1495784183","name":"Substation 1495784183","state":"VT","ownerName":null,"minVoltageKv":null,"maxVoltageKv":null,"voltageBand":"unknown","substationType":"unknown","status":"in_service","source":"osm"}},{"type":"Feature","geometry":{"type":"Point","coordinates":[-73.0497979,43.1738717]},"properties":{"id":"osm-way-192430286","slug":"substation-192430286-vt-way-192430286","name":"Substation 192430286","state":"VT","ownerName":null,"minVoltageKv":null,"maxVoltageKv":null,"voltageBand":"unknown","substationType":"unknown","status":"in_service","source":"osm"}},{"type":"Feature","geometry":{"type":"Point","coordinates":[-72.8957767,42.924537]},"properties":{"id":"osm-way-239076869","slug":"substation-239076869-vt-way-239076869","name":"Substation 239076869","state":"VT","ownerName":null,"minVoltageKv":null,"maxVoltageKv":null,"voltageBand":"unknown","substationType":"unknown","status":"in_service","source":"osm"}},{"type":"Feature","geometry":{"type":"Point","coordinates":[-72.4412204,43.1350084]},"properties":{"id":"osm-way-288142976","slug":"substation-288142976-vt-way-288142976","name":"Substation 288142976","state":"VT","ownerName":null,"minVoltageKv":null,"maxVoltageKv":null,"voltageBand":"unknown","substationType":"unknown","status":"in_service","source":"osm"}},{"type":"Feature","geometry":{"type":"Point","coordinates":[-72.9893908,43.6070548]},"properties":{"id":"osm-way-318654975","slug":"substation-318654975-vt-way-318654975","name":"Substation 318654975","state":"VT","ownerName":null,"minVoltageKv":null,"maxVoltageKv":null,"voltageBand":"unknown","substationType":"unknown","status":"in_service","source":"osm"}},{"type":"Feature","geometry":{"type":"Point","coordinates":[-72.9446262,43.2069321]},"properties":{"id":"osm-way-360091233","slug":"substation-360091233-vt-way-360091233","name":"Substation 360091233","state":"VT","ownerName":null,"minVoltageKv":null,"maxVoltageKv":null,"voltageBand":"unknown","substationType":"unknown","status":"in_service","source":"osm"}},{"type":"Feature","geometry":{"type":"Point","coordinates":[-73.2578562,44.1666187]},"properties":{"id":"osm-way-423641296","slug":"substation-423641296-vt-way-423641296","name":"Substation 423641296","state":"VT","ownerName":null,"minVoltageKv":null,"maxVoltageKv":null,"voltageBand":"unknown","substationType":"unknown","status":"in_service","source":"osm"}},{"type":"Feature","geometry":{"type":"Point","coordinates":[-72.4768801,43.2917966]},"properties":{"id":"osm-way-442972813","slug":"substation-442972813-vt-way-442972813","name":"Substation 442972813","state":"VT","ownerName":null,"minVoltageKv":null,"maxVoltageKv":null,"voltageBand":"unknown","substationType":"unknown","status":"in_service","source":"osm"}},{"type":"Feature","geometry":{"type":"Point","coordinates":[-73.1871983,42.88561]},"properties":{"id":"osm-way-517482582","slug":"substation-517482582-vt-way-517482582","name":"Substation 517482582","state":"VT","ownerName":null,"minVoltageKv":null,"maxVoltageKv":null,"voltageBand":"unknown","substationType":"unknown","status":"in_service","source":"osm"}},{"type":"Feature","geometry":{"type":"Point","coordinates":[-72.8001756,43.6327876]},"properties":{"id":"osm-way-570050905","slug":"substation-570050905-vt-way-570050905","name":"Substation 570050905","state":"VT","ownerName":null,"minVoltageKv":null,"maxVoltageKv":null,"voltageBand":"unknown","substationType":"unknown","status":"in_service","source":"osm"}},{"type":"Feature","geometry":{"type":"Point","coordinates":[-73.1760234,44.0522513]},"properties":{"id":"osm-relation-5712320","slug":"substation-5712320-vt-relation-5712320","name":"Substation 5712320","state":"VT","ownerName":null,"minVoltageKv":null,"maxVoltageKv":null,"voltageBand":"unknown","substationType":"unknown","status":"in_service","source":"osm"}},{"type":"Feature","geometry":{"type":"Point","coordinates":[-73.1798185,44.4572219]},"properties":{"id":"osm-way-575389852","slug":"substation-575389852-vt-way-575389852","name":"Substation 575389852","state":"VT","ownerName":null,"minVoltageKv":null,"maxVoltageKv":null,"voltageBand":"unknown","substationType":"unknown","status":"in_service","source":"osm"}},{"type":"Feature","geometry":{"type":"Point","coordinates":[-73.2170547,44.4458989]},"properties":{"id":"osm-way-575393430","slug":"substation-575393430-vt-way-575393430","name":"Substation 575393430","state":"VT","ownerName":null,"minVoltageKv":null,"maxVoltageKv":null,"voltageBand":"unknown","substationType":"unknown","status":"in_service","source":"osm"}},{"type":"Feature","geometry":{"type":"Point","coordinates":[-73.1691848,44.4891175]},"properties":{"id":"osm-way-586472073","slug":"substation-586472073-vt-way-586472073","name":"Substation 586472073","state":"VT","ownerName":null,"minVoltageKv":null,"maxVoltageKv":null,"voltageBand":"unknown","substationType":"unknown","status":"in_service","source":"osm"}},{"type":"Feature","geometry":{"type":"Point","coordinates":[-73.1712212,44.4903162]},"properties":{"id":"osm-way-586472077","slug":"substation-586472077-vt-way-586472077","name":"Substation 586472077","state":"VT","ownerName":null,"minVoltageKv":null,"maxVoltageKv":null,"voltageBand":"unknown","substationType":"unknown","status":"in_service","source":"osm"}},{"type":"Feature","geometry":{"type":"Point","coordinates":[-72.5602918,44.5674542]},"properties":{"id":"osm-way-1313596635","slug":"substation-6-vt-way-1313596635","name":"Substation 6","state":"VT","ownerName":"Village of Morrisville Water & Light Department","minVoltageKv":null,"maxVoltageKv":null,"voltageBand":"unknown","substationType":"unknown","status":"in_service","source":"osm"}},{"type":"Feature","geometry":{"type":"Point","coordinates":[-73.0542667,43.6067776]},"properties":{"id":"osm-way-725474915","slug":"substation-725474915-vt-way-725474915","name":"Substation 725474915","state":"VT","ownerName":null,"minVoltageKv":null,"maxVoltageKv":null,"voltageBand":"unknown","substationType":"unknown","status":"in_service","source":"osm"}},{"type":"Feature","geometry":{"type":"Point","coordinates":[-72.3274953,43.6524342]},"properties":{"id":"osm-way-772781505","slug":"substation-772781505-vt-way-772781505","name":"Substation 772781505","state":"VT","ownerName":null,"minVoltageKv":null,"maxVoltageKv":null,"voltageBand":"unknown","substationType":"unknown","status":"in_service","source":"osm"}},{"type":"Feature","geometry":{"type":"Point","coordinates":[-72.4946631,43.3028331]},"properties":{"id":"osm-way-791994594","slug":"substation-791994594-vt-way-791994594","name":"Substation 791994594","state":"VT","ownerName":null,"minVoltageKv":null,"maxVoltageKv":null,"voltageBand":"unknown","substationType":"unknown","status":"in_service","source":"osm"}},{"type":"Feature","geometry":{"type":"Point","coordinates":[-73.1732563,44.030137]},"properties":{"id":"osm-way-827354970","slug":"substation-827354970-vt-way-827354970","name":"Substation 827354970","state":"VT","ownerName":null,"minVoltageKv":null,"maxVoltageKv":null,"voltageBand":"unknown","substationType":"unknown","status":"in_service","source":"osm"}},{"type":"Feature","geometry":{"type":"Point","coordinates":[-73.2082745,44.4923641]},"properties":{"id":"osm-way-827354976","slug":"substation-827354976-vt-way-827354976","name":"Substation 827354976","state":"VT","ownerName":null,"minVoltageKv":null,"maxVoltageKv":null,"voltageBand":"unknown","substationType":"unknown","status":"in_service","source":"osm"}},{"type":"Feature","geometry":{"type":"Point","coordinates":[-73.1766856,44.5106989]},"properties":{"id":"osm-way-827354979","slug":"substation-827354979-vt-way-827354979","name":"Substation 827354979","state":"VT","ownerName":null,"minVoltageKv":null,"maxVoltageKv":null,"voltageBand":"unknown","substationType":"unknown","status":"in_service","source":"osm"}},{"type":"Feature","geometry":{"type":"Point","coordinates":[-72.8223529,43.4542933]},"properties":{"id":"osm-way-842303848","slug":"substation-842303848-vt-way-842303848","name":"Substation 842303848","state":"VT","ownerName":null,"minVoltageKv":null,"maxVoltageKv":null,"voltageBand":"unknown","substationType":"unknown","status":"in_service","source":"osm"}},{"type":"Feature","geometry":{"type":"Point","coordinates":[-73.1710712,44.4805579]},"properties":{"id":"osm-way-842927883","slug":"substation-842927883-vt-way-842927883","name":"Substation 842927883","state":"VT","ownerName":null,"minVoltageKv":null,"maxVoltageKv":null,"voltageBand":"unknown","substationType":"unknown","status":"in_service","source":"osm"}},{"type":"Feature","geometry":{"type":"Point","coordinates":[-73.1710882,44.4805117]},"properties":{"id":"osm-way-842927884","slug":"substation-842927884-vt-way-842927884","name":"Substation 842927884","state":"VT","ownerName":null,"minVoltageKv":null,"maxVoltageKv":null,"voltageBand":"unknown","substationType":"unknown","status":"in_service","source":"osm"}},{"type":"Feature","geometry":{"type":"Point","coordinates":[-72.6616002,43.4265286]},"properties":{"id":"osm-way-909012196","slug":"substation-909012196-vt-way-909012196","name":"Substation 909012196","state":"VT","ownerName":null,"minVoltageKv":115,"maxVoltageKv":115,"voltageBand":"medium","substationType":"unknown","status":"in_service","source":"osm"}},{"type":"Feature","geometry":{"type":"Point","coordinates":[-73.0502868,43.1715442]},"properties":{"id":"osm-way-968899712","slug":"substation-968899712-vt-way-968899712","name":"Substation 968899712","state":"VT","ownerName":null,"minVoltageKv":null,"maxVoltageKv":null,"voltageBand":"unknown","substationType":"unknown","status":"in_service","source":"osm"}},{"type":"Feature","geometry":{"type":"Point","coordinates":[-72.3133748,43.6807556]},"properties":{"id":"osm-way-974181261","slug":"substation-974181261-vt-way-974181261","name":"Substation 974181261","state":"VT","ownerName":null,"minVoltageKv":null,"maxVoltageKv":null,"voltageBand":"unknown","substationType":"unknown","status":"in_service","source":"osm"}},{"type":"Feature","geometry":{"type":"Point","coordinates":[-73.2620276,43.5942922]},"properties":{"id":"osm-way-993712501","slug":"substation-993712501-vt-way-993712501","name":"Substation 993712501","state":"VT","ownerName":null,"minVoltageKv":null,"maxVoltageKv":null,"voltageBand":"unknown","substationType":"unknown","status":"in_service","source":"osm"}},{"type":"Feature","geometry":{"type":"Point","coordinates":[-73.2358064,43.5206033]},"properties":{"id":"osm-way-993712511","slug":"substation-993712511-vt-way-993712511","name":"Substation 993712511","state":"VT","ownerName":null,"minVoltageKv":null,"maxVoltageKv":null,"voltageBand":"unknown","substationType":"unknown","status":"in_service","source":"osm"}},{"type":"Feature","geometry":{"type":"Point","coordinates":[-73.249334,44.1790237]},"properties":{"id":"osm-way-390468415","slug":"vergennes-substation-vt-way-390468415","name":"Vergennes Substation","state":"VT","ownerName":"Vermont Electric Power Company","minVoltageKv":115,"maxVoltageKv":115,"voltageBand":"medium","substationType":"distribution","status":"in_service","source":"osm"}},{"type":"Feature","geometry":{"type":"Point","coordinates":[-72.5159397,42.7801202]},"properties":{"id":"osm-way-141078310","slug":"vermont-yankee-substation-vt-way-141078310","name":"Vermont Yankee Substation","state":"VT","ownerName":"Vermont Electric Power Company","minVoltageKv":115,"maxVoltageKv":345,"voltageBand":"extra-high","substationType":"transmission","status":"in_service","source":"osm"}},{"type":"Feature","geometry":{"type":"Point","coordinates":[-72.5510408,42.8376413]},"properties":{"id":"osm-way-814284449","slug":"vernon-road-substation-vt-way-814284449","name":"Vernon Road Substation","state":"VT","ownerName":"Vermont Electric Power Company","minVoltageKv":69,"maxVoltageKv":115,"voltageBand":"medium","substationType":"distribution","status":"in_service","source":"osm"}},{"type":"Feature","geometry":{"type":"Point","coordinates":[-72.5153141,42.7715476]},"properties":{"id":"osm-way-189843548","slug":"vernon-substation-vt-way-189843548","name":"Vernon Substation","state":"VT","ownerName":"National Grid","minVoltageKv":69,"maxVoltageKv":69,"voltageBand":"sub-trans","substationType":"distribution","status":"in_service","source":"osm"}},{"type":"Feature","geometry":{"type":"Point","coordinates":[-72.5184045,42.7830745]},"properties":{"id":"osm-way-138912070","slug":"vernon-vt-substation-vt-way-138912070","name":"Vernon VT Substation","state":"VT","ownerName":"Vermont Electric Power Company","minVoltageKv":115,"maxVoltageKv":345,"voltageBand":"extra-high","substationType":"transmission","status":"in_service","source":"osm"}},{"type":"Feature","geometry":{"type":"Point","coordinates":[-72.5162673,42.7818154]},"properties":{"id":"osm-way-814284444","slug":"vernon-vt-substation-vt-way-814284444","name":"Vernon VT Substation","state":"VT","ownerName":"Vermont Electric Power Company","minVoltageKv":115,"maxVoltageKv":115,"voltageBand":"medium","substationType":"distribution","status":"in_service","source":"osm"}},{"type":"Feature","geometry":{"type":"Point","coordinates":[-73.0578345,43.6337734]},"properties":{"id":"osm-way-138917420","slug":"west-rutland-substation-vt-way-138917420","name":"West Rutland Substation","state":"VT","ownerName":"Vermont Electric Power Company","minVoltageKv":115,"maxVoltageKv":345,"voltageBand":"extra-high","substationType":"transmission","status":"in_service","source":"osm"}},{"type":"Feature","geometry":{"type":"Point","coordinates":[-72.4554945,43.1010262]},"properties":{"id":"osm-way-1168362805","slug":"westminister-substation-vt-way-1168362805","name":"Westminister Substation","state":"VT","ownerName":"Green Mountain Power","minVoltageKv":69,"maxVoltageKv":69,"voltageBand":"sub-trans","substationType":"distribution","status":"in_service","source":"osm"}},{"type":"Feature","geometry":{"type":"Point","coordinates":[-72.3037783,43.6684012]},"properties":{"id":"osm-way-1157794040","slug":"wilder-hydro-substation-vt-way-1157794040","name":"Wilder Hydro Substation","state":"VT","ownerName":"Great River Hydro","minVoltageKv":115,"maxVoltageKv":115,"voltageBand":"medium","substationType":"distribution","status":"in_service","source":"osm"}},{"type":"Feature","geometry":{"type":"Point","coordinates":[-72.3043816,43.6691949]},"properties":{"id":"osm-way-139634988","slug":"wilder-substation-vt-way-139634988","name":"Wilder Substation","state":"VT","ownerName":"National Grid","minVoltageKv":115,"maxVoltageKv":115,"voltageBand":"medium","substationType":"distribution","status":"in_service","source":"osm"}},{"type":"Feature","geometry":{"type":"Point","coordinates":[-73.1116075,44.4402467]},"properties":{"id":"osm-way-152163210","slug":"williston-substation-vt-way-152163210","name":"Williston Substation","state":"VT","ownerName":"Vermont Electric Power Company","minVoltageKv":115,"maxVoltageKv":115,"voltageBand":"medium","substationType":"distribution","status":"in_service","source":"osm"}},{"type":"Feature","geometry":{"type":"Point","coordinates":[-73.1287238,44.4138689]},"properties":{"id":"osm-way-423944772","slug":"williston-substation-vt-way-423944772","name":"Williston Substation","state":"VT","ownerName":"Vermont Electric Power Company","minVoltageKv":115,"maxVoltageKv":115,"voltageBand":"medium","substationType":"distribution","status":"in_service","source":"osm"}},{"type":"Feature","geometry":{"type":"Point","coordinates":[-72.8952653,42.8739544]},"properties":{"id":"osm-way-1158491859","slug":"wilmington-substation-vt-way-1158491859","name":"Wilmington Substation","state":"VT","ownerName":"Green Mountain Power","minVoltageKv":69,"maxVoltageKv":69,"voltageBand":"sub-trans","substationType":"distribution","status":"in_service","source":"osm"}},{"type":"Feature","geometry":{"type":"Point","coordinates":[-72.4085618,43.489909]},"properties":{"id":"osm-way-840281416","slug":"windsor-substation-vt-way-840281416","name":"Windsor Substation","state":"VT","ownerName":"Vermont Electric Power Company","minVoltageKv":46,"maxVoltageKv":115,"voltageBand":"medium","substationType":"distribution","status":"in_service","source":"osm"}}]}